{
  "type": "FeatureCollection",
  "features": [
    {
      "type": "Feature",
      "properties": {
        "norad_id": 41019,
        "name": "GPS BIIF-11 (PRN 10)",
        "group": "gnss",
        "lat": 20.496315859254363,
        "lon": 52.55606737312426,
        "alt_km": 20445.7192449272,
        "timestamp": "2025-12-02T08:59:32.956801+00:00",
        "meta_object_name": "GPS BIIF-11 (PRN 10)",
        "meta_object_id": "2015-062A",
        "meta_epoch": "2025-12-01T08:13:28.844544",
        "meta_mean_motion": 2.00567003,
        "meta_eccentricity": 0.01104814,
        "meta_inclination": 56.824,
        "meta_ra_of_asc_node": 38.4433,
        "meta_arg_of_pericenter": 229.6355,
        "meta_mean_anomaly": 129.443,
        "meta_ephemeris_type": 0,
        "meta_classification_type": "U",
        "meta_norad_cat_id": 41019,
        "meta_element_set_no": 999,
        "meta_rev_at_epoch": 7386,
        "meta_bstar": 0,
        "meta_mean_motion_dot": -6.4e-07,
        "meta_mean_motion_ddot": 0,
        "tle_line1": "1 41019U 15062A   25335.34269496 -.00000064  00000+0  00000+0 0  9999",
        "tle_line2": "2 41019  56.8240  38.4433 0110481 229.6355 129.4430  2.00567003 73864"
      },
      "geometry": {
        "type": "Point",
        "coordinates": [
          52.55606737312426,
          20.496315859254363
        ]
      }
    },
    {
      "type": "Feature",
      "properties": {
        "norad_id": 41028,
        "name": "GSAT-15 (GAGAN/PRN 139)",
        "group": "gnss",
        "lat": -0.01743266153321954,
        "lon": -60.13799787177072,
        "alt_km": 35781.51679731987,
        "timestamp": "2025-12-02T08:59:32.956812+00:00",
        "meta_object_name": "GSAT-15 (GAGAN/PRN 139)",
        "meta_object_id": "2015-065A",
        "meta_epoch": "2025-12-01T15:58:12.726048",
        "meta_mean_motion": 1.00270917,
        "meta_eccentricity": 0.0003058,
        "meta_inclination": 0.0136,
        "meta_ra_of_asc_node": 9.6854,
        "meta_arg_of_pericenter": 222.141,
        "meta_mean_anomaly": 172.0005,
        "meta_ephemeris_type": 0,
        "meta_classification_type": "U",
        "meta_norad_cat_id": 41028,
        "meta_element_set_no": 999,
        "meta_rev_at_epoch": 3681,
        "meta_bstar": 0,
        "meta_mean_motion_dot": -2.36e-06,
        "meta_mean_motion_ddot": 0,
        "tle_line1": "1 41028U 15065A   25335.66542507 -.00000236  00000+0  00000+0 0  9995",
        "tle_line2": "2 41028   0.0136   9.6854 0003058 222.1410 172.0005  1.00270917 36817"
      },
      "geometry": {
        "type": "Point",
        "coordinates": [
          -60.13799787177072,
          -0.01743266153321954
        ]
      }
    },
    {
      "type": "Feature",
      "properties": {
        "norad_id": 41174,
        "name": "GSAT0209 (GALILEO 12)",
        "group": "gnss",
        "lat": -55.02556146592508,
        "lon": 3.8349732302410877,
        "alt_km": 23228.65366375678,
        "timestamp": "2025-12-02T08:59:32.956826+00:00",
        "meta_object_name": "GSAT0209 (GALILEO 12)",
        "meta_object_id": "2015-079A",
        "meta_epoch": "2025-12-01T08:38:30.213024",
        "meta_mean_motion": 1.70474295,
        "meta_eccentricity": 0.0002365,
        "meta_inclination": 55.7059,
        "meta_ra_of_asc_node": 106.6934,
        "meta_arg_of_pericenter": 357.6757,
        "meta_mean_anomaly": 2.2921,
        "meta_ephemeris_type": 0,
        "meta_classification_type": "U",
        "meta_norad_cat_id": 41174,
        "meta_element_set_no": 999,
        "meta_rev_at_epoch": 6140,
        "meta_bstar": 0,
        "meta_mean_motion_dot": 4e-07,
        "meta_mean_motion_ddot": 0,
        "tle_line1": "1 41174U 15079A   25335.36007191  .00000040  00000+0  00000+0 0  9996",
        "tle_line2": "2 41174  55.7059 106.6934 0002365 357.6757   2.2921  1.70474295 61401"
      },
      "geometry": {
        "type": "Point",
        "coordinates": [
          3.8349732302410877,
          -55.02556146592508
        ]
      }
    },
    {
      "type": "Feature",
      "properties": {
        "norad_id": 41175,
        "name": "GSAT0208 (GALILEO 11)",
        "group": "gnss",
        "lat": 40.85015426709431,
        "lon": -109.50645238796263,
        "alt_km": 23219.67889033667,
        "timestamp": "2025-12-02T08:59:32.956837+00:00",
        "meta_object_name": "GSAT0208 (GALILEO 11)",
        "meta_object_id": "2015-079B",
        "meta_epoch": "2025-11-30T09:46:10.644960",
        "meta_mean_motion": 1.70474193,
        "meta_eccentricity": 0.00018872,
        "meta_inclination": 55.7038,
        "meta_ra_of_asc_node": 106.7167,
        "meta_arg_of_pericenter": 11.7228,
        "meta_mean_anomaly": 348.2564,
        "meta_ephemeris_type": 0,
        "meta_classification_type": "U",
        "meta_norad_cat_id": 41175,
        "meta_element_set_no": 999,
        "meta_rev_at_epoch": 6180,
        "meta_bstar": 0,
        "meta_mean_motion_dot": 4.8e-07,
        "meta_mean_motion_ddot": 0,
        "tle_line1": "1 41175U 15079B   25334.40706765  .00000048  00000+0  00000+0 0  9992",
        "tle_line2": "2 41175  55.7038 106.7167 0001887  11.7228 348.2564  1.70474193 61804"
      },
      "geometry": {
        "type": "Point",
        "coordinates": [
          -109.50645238796263,
          40.85015426709431
        ]
      }
    },
    {
      "type": "Feature",
      "properties": {
        "norad_id": 41241,
        "name": "IRNSS-1E",
        "group": "gnss",
        "lat": -31.6924784907598,
        "lon": -44.26130620941376,
        "alt_km": 35755.08508121795,
        "timestamp": "2025-12-02T08:59:32.956848+00:00",
        "meta_object_name": "IRNSS-1E",
        "meta_object_id": "2016-003A",
        "meta_epoch": "2025-12-01T16:03:27.223776",
        "meta_mean_motion": 1.00278544,
        "meta_eccentricity": 0.0021918,
        "meta_inclination": 32.8014,
        "meta_ra_of_asc_node": 62.6145,
        "meta_arg_of_pericenter": 186.5756,
        "meta_mean_anomaly": 174.1351,
        "meta_ephemeris_type": 0,
        "meta_classification_type": "U",
        "meta_norad_cat_id": 41241,
        "meta_element_set_no": 999,
        "meta_rev_at_epoch": 3610,
        "meta_bstar": 0,
        "meta_mean_motion_dot": -2.97e-06,
        "meta_mean_motion_ddot": 0,
        "tle_line1": "1 41241U 16003A   25335.66906509 -.00000297  00000+0  00000+0 0  9998",
        "tle_line2": "2 41241  32.8014  62.6145 0021918 186.5756 174.1351  1.00278544 36108"
      },
      "geometry": {
        "type": "Point",
        "coordinates": [
          -44.26130620941376,
          -31.6924784907598
        ]
      }
    },
    {
      "type": "Feature",
      "properties": {
        "norad_id": 41328,
        "name": "GPS BIIF-12 (PRN 32)",
        "group": "gnss",
        "lat": -27.521417148300383,
        "lon": 76.1891804106153,
        "alt_km": 20152.535741422278,
        "timestamp": "2025-12-02T08:59:32.956860+00:00",
        "meta_object_name": "GPS BIIF-12 (PRN 32)",
        "meta_object_id": "2016-007A",
        "meta_epoch": "2025-11-30T22:13:59.162016",
        "meta_mean_motion": 2.00561199,
        "meta_eccentricity": 0.00916,
        "meta_inclination": 55.3993,
        "meta_ra_of_asc_node": 97.326,
        "meta_arg_of_pericenter": 243.286,
        "meta_mean_anomaly": 115.7578,
        "meta_ephemeris_type": 0,
        "meta_classification_type": "U",
        "meta_norad_cat_id": 41328,
        "meta_element_set_no": 999,
        "meta_rev_at_epoch": 7186,
        "meta_bstar": 0,
        "meta_mean_motion_dot": 2.3e-07,
        "meta_mean_motion_ddot": 0,
        "tle_line1": "1 41328U 16007A   25334.92637919  .00000023  00000+0  00000+0 0  9998",
        "tle_line2": "2 41328  55.3993  97.3260 0091600 243.2860 115.7578  2.00561199 71861"
      },
      "geometry": {
        "type": "Point",
        "coordinates": [
          76.1891804106153,
          -27.521417148300383
        ]
      }
    },
    {
      "type": "Feature",
      "properties": {
        "norad_id": 41330,
        "name": "COSMOS 2514 (751)",
        "group": "gnss",
        "lat": 38.18370290884991,
        "lon": 118.36332480383004,
        "alt_km": 19121.45898570658,
        "timestamp": "2025-12-02T08:59:32.956870+00:00",
        "meta_object_name": "COSMOS 2514 (751)",
        "meta_object_id": "2016-008A",
        "meta_epoch": "2025-12-01T06:10:30.326016",
        "meta_mean_motion": 2.13102518,
        "meta_eccentricity": 0.0012529,
        "meta_inclination": 65.1403,
        "meta_ra_of_asc_node": 319.7975,
        "meta_arg_of_pericenter": 219.8281,
        "meta_mean_anomaly": 140.091,
        "meta_ephemeris_type": 0,
        "meta_classification_type": "U",
        "meta_norad_cat_id": 41330,
        "meta_element_set_no": 999,
        "meta_rev_at_epoch": 7640,
        "meta_bstar": 0,
        "meta_mean_motion_dot": -2.7e-07,
        "meta_mean_motion_ddot": 0,
        "tle_line1": "1 41330U 16008A   25335.25729544 -.00000027  00000+0  00000+0 0  9990",
        "tle_line2": "2 41330  65.1403 319.7975 0012529 219.8281 140.0910  2.13102518 76408"
      },
      "geometry": {
        "type": "Point",
        "coordinates": [
          118.36332480383004,
          38.18370290884991
        ]
      }
    }
  ]
}